<?xml version="1.0" encoding="UTF-8"?>
<gpx version="1.1" creator="Den Bochtenkoning Rally" xmlns="http://www.topografix.com/GPX/1/1">
  <metadata>
    <name>RZ2 - Ronse Heuvelzone</name>
    <desc>Rally Zone 2: Ronse Heuvelzone</desc>
    <time>2026-01-16T18:25:52.320Z</time>
  </metadata>
  <wpt lat="50.72486" lon="3.68384">
    <name>Start</name>
    <desc>Start</desc>
    <time>2026-01-16T18:25:52.320Z</time>
  </wpt>
  <wpt lat="50.69229" lon="3.67474">
    <name>Checkpoint 1: Onze-Lieve-Vrouwkapel</name>
    <desc>Checkpoint 1: Onze-Lieve-Vrouwkapel</desc>
    <time>2026-01-16T18:25:52.320Z</time>
  </wpt>
  <wpt lat="50.7583" lon="3.6178">
    <name>Checkpoint 2: Muziekberg Panorama</name>
    <desc>Checkpoint 2: Muziekberg Panorama</desc>
    <time>2026-01-16T18:25:52.320Z</time>
  </wpt>
  <wpt lat="50.58285" lon="3.80251">
    <name>End</name>
    <desc>End</desc>
    <time>2026-01-16T18:25:52.320Z</time>
  </wpt>
  <trk>
    <name>RZ2 - Ronse Heuvelzone</name>
    <desc>Rally detour route with 2 checkpoint(s)</desc>
    <trkseg>
        <trkpt lat="50.72486" lon="3.68384">
          <name>Start</name>
          <time>2026-01-16T18:25:52.320Z</time>
        </trkpt>
        <trkpt lat="50.69229" lon="3.67474">
          <name>Checkpoint 1: Onze-Lieve-Vrouwkapel</name>
          <time>2026-01-16T18:25:52.320Z</time>
        </trkpt>
        <trkpt lat="50.7583" lon="3.6178">
          <name>Checkpoint 2: Muziekberg Panorama</name>
          <time>2026-01-16T18:25:52.320Z</time>
        </trkpt>
        <trkpt lat="50.58285" lon="3.80251">
          <name>End</name>
          <time>2026-01-16T18:25:52.320Z</time>
        </trkpt>
    </trkseg>
  </trk>
</gpx>