<?xml version="1.0" encoding="UTF-8"?>
<gpx version="1.1" creator="Den Bochtenkoning Rally" xmlns="http://www.topografix.com/GPX/1/1">
  <metadata>
    <name>RZ3 - Tussen Schelde en Dender</name>
    <desc>Rally Zone 3: Tussen Schelde en Dender</desc>
    <time>2026-01-16T18:25:52.320Z</time>
  </metadata>
  <wpt lat="50.60471" lon="4.20145">
    <name>Start</name>
    <desc>Start</desc>
    <time>2026-01-16T18:25:52.320Z</time>
  </wpt>
  <wpt lat="50.60471" lon="4.20145">
    <name>Checkpoint 1: Den Herdermolen</name>
    <desc>Checkpoint 1: Den Herdermolen</desc>
    <time>2026-01-16T18:25:52.320Z</time>
  </wpt>
  <wpt lat="50.56327" lon="4.23794">
    <name>End</name>
    <desc>End</desc>
    <time>2026-01-16T18:25:52.320Z</time>
  </wpt>
  <trk>
    <name>RZ3 - Tussen Schelde en Dender</name>
    <desc>Rally detour route with 1 checkpoint(s)</desc>
    <trkseg>
        <trkpt lat="50.60471" lon="4.20145">
          <name>Start</name>
          <time>2026-01-16T18:25:52.320Z</time>
        </trkpt>
        <trkpt lat="50.60471" lon="4.20145">
          <name>Checkpoint 1: Den Herdermolen</name>
          <time>2026-01-16T18:25:52.320Z</time>
        </trkpt>
        <trkpt lat="50.56327" lon="4.23794">
          <name>End</name>
          <time>2026-01-16T18:25:52.320Z</time>
        </trkpt>
    </trkseg>
  </trk>
</gpx>