<?xml version="1.0" encoding="UTF-8"?>
<gpx version="1.1" creator="Den Bochtenkoning Rally" xmlns="http://www.topografix.com/GPX/1/1">
  <metadata>
    <name>RZ4 - Pays des Collines</name>
    <desc>Rally Zone 4: Pays des Collines</desc>
    <time>2026-01-16T18:25:52.321Z</time>
  </metadata>
  <wpt lat="50.42103" lon="4.28173">
    <name>Start</name>
    <desc>Start</desc>
    <time>2026-01-16T18:25:52.321Z</time>
  </wpt>
  <wpt lat="50.34245" lon="4.35235">
    <name>Checkpoint 1: Fort du Vert Gazon</name>
    <desc>Checkpoint 1: Fort du Vert Gazon</desc>
    <time>2026-01-16T18:25:52.321Z</time>
  </wpt>
  <wpt lat="50.27166" lon="4.4337">
    <name>Checkpoint 2: Mont de l'Enclus</name>
    <desc>Checkpoint 2: Mont de l'Enclus</desc>
    <time>2026-01-16T18:25:52.321Z</time>
  </wpt>
  <wpt lat="50.22224" lon="4.41212">
    <name>End</name>
    <desc>End</desc>
    <time>2026-01-16T18:25:52.321Z</time>
  </wpt>
  <trk>
    <name>RZ4 - Pays des Collines</name>
    <desc>Rally detour route with 2 checkpoint(s)</desc>
    <trkseg>
        <trkpt lat="50.42103" lon="4.28173">
          <name>Start</name>
          <time>2026-01-16T18:25:52.321Z</time>
        </trkpt>
        <trkpt lat="50.34245" lon="4.35235">
          <name>Checkpoint 1: Fort du Vert Gazon</name>
          <time>2026-01-16T18:25:52.321Z</time>
        </trkpt>
        <trkpt lat="50.27166" lon="4.4337">
          <name>Checkpoint 2: Mont de l'Enclus</name>
          <time>2026-01-16T18:25:52.321Z</time>
        </trkpt>
        <trkpt lat="50.22224" lon="4.41212">
          <name>End</name>
          <time>2026-01-16T18:25:52.321Z</time>
        </trkpt>
    </trkseg>
  </trk>
</gpx>