<?xml version="1.0" encoding="UTF-8"?>
<gpx version="1.1" creator="Den Bochtenkoning Rally" xmlns="http://www.topografix.com/GPX/1/1">
  <metadata>
    <name>RZ5 - Samber Valley Challenge</name>
    <desc>Rally Zone 5: Samber Valley Challenge</desc>
    <time>2026-01-16T18:25:52.321Z</time>
  </metadata>
  <wpt lat="50.10595" lon="4.66004">
    <name>Start</name>
    <desc>Start</desc>
    <time>2026-01-16T18:25:52.321Z</time>
  </wpt>
  <wpt lat="50.4778" lon="4.1572">
    <name>Checkpoint 1: Ascenseur de Strépy-Thieu</name>
    <desc>Checkpoint 1: Ascenseur de Strépy-Thieu</desc>
    <time>2026-01-16T18:25:52.321Z</time>
  </wpt>
  <wpt lat="50.5789" lon="4.2645">
    <name>Checkpoint 2: Carrière de Feluy</name>
    <desc>Checkpoint 2: Carrière de Feluy</desc>
    <time>2026-01-16T18:25:52.321Z</time>
  </wpt>
  <wpt lat="50.3535" lon="4.3912">
    <name>Checkpoint 3: Abbaye d'Aulne</name>
    <desc>Checkpoint 3: Abbaye d'Aulne</desc>
    <time>2026-01-16T18:25:52.321Z</time>
  </wpt>
  <wpt lat="49.87992" lon="4.904">
    <name>End</name>
    <desc>End</desc>
    <time>2026-01-16T18:25:52.321Z</time>
  </wpt>
  <trk>
    <name>RZ5 - Samber Valley Challenge</name>
    <desc>Rally detour route with 3 checkpoint(s)</desc>
    <trkseg>
        <trkpt lat="50.10595" lon="4.66004">
          <name>Start</name>
          <time>2026-01-16T18:25:52.321Z</time>
        </trkpt>
        <trkpt lat="50.4778" lon="4.1572">
          <name>Checkpoint 1: Ascenseur de Strépy-Thieu</name>
          <time>2026-01-16T18:25:52.321Z</time>
        </trkpt>
        <trkpt lat="50.5789" lon="4.2645">
          <name>Checkpoint 2: Carrière de Feluy</name>
          <time>2026-01-16T18:25:52.321Z</time>
        </trkpt>
        <trkpt lat="50.3535" lon="4.3912">
          <name>Checkpoint 3: Abbaye d'Aulne</name>
          <time>2026-01-16T18:25:52.321Z</time>
        </trkpt>
        <trkpt lat="49.87992" lon="4.904">
          <name>End</name>
          <time>2026-01-16T18:25:52.321Z</time>
        </trkpt>
    </trkseg>
  </trk>
</gpx>