<?xml version="1.0" encoding="UTF-8"?>
<gpx version="1.1" creator="Den Bochtenkoning Rally" xmlns="http://www.topografix.com/GPX/1/1">
  <metadata>
    <name>RZ6 - Ardennen Panorama Route</name>
    <desc>Rally Zone 6: Ardennen Panorama Route</desc>
    <time>2026-01-16T18:25:52.323Z</time>
  </metadata>
  <wpt lat="49.78753" lon="5.17524">
    <name>Start</name>
    <desc>Start</desc>
    <time>2026-01-16T18:25:52.323Z</time>
  </wpt>
  <wpt lat="50.1389" lon="5.5558">
    <name>Checkpoint 1: Barrage de Nisramont</name>
    <desc>Checkpoint 1: Barrage de Nisramont</desc>
    <time>2026-01-16T18:25:52.323Z</time>
  </wpt>
  <wpt lat="50.1234" lon="5.4567">
    <name>Checkpoint 2: Roche à Frêne Viewpoint</name>
    <desc>Checkpoint 2: Roche à Frêne Viewpoint</desc>
    <time>2026-01-16T18:25:52.323Z</time>
  </wpt>
  <wpt lat="50.2123" lon="5.5012">
    <name>Checkpoint 3: Mont des Deux Provinces</name>
    <desc>Checkpoint 3: Mont des Deux Provinces</desc>
    <time>2026-01-16T18:25:52.323Z</time>
  </wpt>
  <wpt lat="50.13412" lon="5.28853">
    <name>End</name>
    <desc>End</desc>
    <time>2026-01-16T18:25:52.323Z</time>
  </wpt>
  <trk>
    <name>RZ6 - Ardennen Panorama Route</name>
    <desc>Rally detour route with 3 checkpoint(s)</desc>
    <trkseg>
        <trkpt lat="49.78753" lon="5.17524">
          <name>Start</name>
          <time>2026-01-16T18:25:52.323Z</time>
        </trkpt>
        <trkpt lat="50.1389" lon="5.5558">
          <name>Checkpoint 1: Barrage de Nisramont</name>
          <time>2026-01-16T18:25:52.323Z</time>
        </trkpt>
        <trkpt lat="50.1234" lon="5.4567">
          <name>Checkpoint 2: Roche à Frêne Viewpoint</name>
          <time>2026-01-16T18:25:52.323Z</time>
        </trkpt>
        <trkpt lat="50.2123" lon="5.5012">
          <name>Checkpoint 3: Mont des Deux Provinces</name>
          <time>2026-01-16T18:25:52.323Z</time>
        </trkpt>
        <trkpt lat="50.13412" lon="5.28853">
          <name>End</name>
          <time>2026-01-16T18:25:52.323Z</time>
        </trkpt>
    </trkseg>
  </trk>
</gpx>